IRIDIUM 921 [-]         
1 24873U 97034E   24087.39323850  .00030623  00000+0  92871-3 0  9994
2 24873  86.3848 328.4492 0003685 159.7624 200.3773 15.33977346462621
IRIDIUM 26 [-]          
1 24903U 97043A   24087.61060914  .00000763  00000+0  25489-3 0  9995
2 24903  86.3915 298.0133 0002239  92.3918 267.7535 14.36256866392620
IRIDIUM 22 [-]          
1 24907U 97043E   24087.60327343  .00000713  00000+0  24292-3 0  9996
2 24907  86.3925 301.1905 0002037  87.7755 272.3675 14.35150906392704
DUMMY MASS 1 [-]        
1 24925U 97048A   24087.45286455  .00000871  00000+0  96322-4 0  9991
2 24925  86.3385 341.7647 0004627 300.5535  59.5232 14.86112494438763
DUMMY MASS 2 [-]        
1 24926U 97048B   24087.20684427  .00001022  00000+0  11418-3 0  9997
2 24926  86.3388 343.4059 0005737 315.0541  45.0218 14.85871845438512
IRIDIUM 29 [-]          
1 24944U 97051A   24087.42272752  .00000889  00000+0  30170-3 0  9995
2 24944  86.3980 331.1997 0001885  85.1051 275.0360 14.35611074389155
IRIDIUM 33 [-]          
1 24946U 97051C   24087.58290699  .00000529  00000+0  18145-3 0  9993
2 24946  86.3893 330.3904 0010009  94.1983 266.0357 14.34296349388711
IRIDIUM 28 [-]          
1 24948U 97051E   24087.89864141  .00000755  00000+0  25042-3 0  9993
2 24948  86.3980 328.7724 0002521  90.1404 270.0082 14.36560242389826
